{
  "type": "FeatureCollection",
  "features": [
    {
      "type": "Feature",
      "properties": {
        "norad_id": 38857,
        "name": "GSAT0103 (GALILEO-FM3)",
        "group": "gnss",
        "lat": 4.46660692662627,
        "lon": -76.31502680244074,
        "alt_km": 23222.37083562114,
        "timestamp": "2025-12-09T16:56:36.817455+00:00",
        "meta_object_name": "GSAT0103 (GALILEO-FM3)",
        "meta_object_id": "2012-055A",
        "meta_epoch": "2025-12-06T11:43:28.953984",
        "meta_mean_motion": 1.7047325,
        "meta_eccentricity": 0.00024686,
        "meta_inclination": 55.6879,
        "meta_ra_of_asc_node": 106.8382,
        "meta_arg_of_pericenter": 267.747,
        "meta_mean_anomaly": 92.1776,
        "meta_ephemeris_type": 0,
        "meta_classification_type": "U",
        "meta_norad_cat_id": 38857,
        "meta_element_set_no": 999,
        "meta_rev_at_epoch": 8172,
        "meta_bstar": 0,
        "meta_mean_motion_dot": 7e-08,
        "meta_mean_motion_ddot": 0,
        "tle_line1": "1 38857U 12055A   25340.48852956  .00000007  00000+0  00000+0 0  9990",
        "tle_line2": "2 38857  55.6879 106.8382 0002468 267.7470  92.1776  1.70473250 81723"
      },
      "geometry": {
        "type": "Point",
        "coordinates": [
          -76.31502680244074,
          4.46660692662627
        ]
      }
    },
    {
      "type": "Feature",
      "properties": {
        "norad_id": 38953,
        "name": "BEIDOU-2 G6 (C02)",
        "group": "gnss",
        "lat": -1.2368976080499026,
        "lon": 56.98064280695025,
        "alt_km": 35767.404767677435,
        "timestamp": "2025-12-09T16:56:36.817468+00:00",
        "meta_object_name": "BEIDOU-2 G6 (C02)",
        "meta_object_id": "2012-059A",
        "meta_epoch": "2025-12-09T08:50:12.403104",
        "meta_mean_motion": 1.00269731,
        "meta_eccentricity": 0.0007522,
        "meta_inclination": 3.9402,
        "meta_ra_of_asc_node": 75.5304,
        "meta_arg_of_pericenter": 289.2206,
        "meta_mean_anomaly": 290.1893,
        "meta_ephemeris_type": 0,
        "meta_classification_type": "U",
        "meta_norad_cat_id": 38953,
        "meta_element_set_no": 999,
        "meta_rev_at_epoch": 4800,
        "meta_bstar": 0,
        "meta_mean_motion_dot": -1.74e-06,
        "meta_mean_motion_ddot": 0,
        "tle_line1": "1 38953U 12059A   25343.36819911 -.00000174  00000+0  00000+0 0  9991",
        "tle_line2": "2 38953   3.9402  75.5304 0007522 289.2206 290.1893  1.00269731 48000"
      },
      "geometry": {
        "type": "Point",
        "coordinates": [
          56.98064280695025,
          -1.2368976080499026
        ]
      }
    },
    {
      "type": "Feature",
      "properties": {
        "norad_id": 38977,
        "name": "LUCH 5B (SDCM/PRN 125)",
        "group": "gnss",
        "lat": -10.045942002633211,
        "lon": -43.490996764475426,
        "alt_km": 35778.33510378296,
        "timestamp": "2025-12-09T16:56:36.817480+00:00",
        "meta_object_name": "LUCH 5B (SDCM/PRN 125)",
        "meta_object_id": "2012-061A",
        "meta_epoch": "2025-12-08T10:06:12.360096",
        "meta_mean_motion": 1.00272234,
        "meta_eccentricity": 0.00072728,
        "meta_inclination": 10.0716,
        "meta_ra_of_asc_node": 51.747,
        "meta_arg_of_pericenter": 191.5954,
        "meta_mean_anomaly": 329.292,
        "meta_ephemeris_type": 0,
        "meta_classification_type": "U",
        "meta_norad_cat_id": 38977,
        "meta_element_set_no": 999,
        "meta_rev_at_epoch": 4769,
        "meta_bstar": 0,
        "meta_mean_motion_dot": -1.39e-06,
        "meta_mean_motion_ddot": 0,
        "tle_line1": "1 38977U 12061A   25342.42097639 -.00000139  00000+0  00000+0 0  9992",
        "tle_line2": "2 38977  10.0716  51.7470 0007272 191.5954 329.2920  1.00272234 47691"
      },
      "geometry": {
        "type": "Point",
        "coordinates": [
          -43.490996764475426,
          -10.045942002633211
        ]
      }
    },
    {
      "type": "Feature",
      "properties": {
        "norad_id": 39155,
        "name": "COSMOS 2485 (747)",
        "group": "gnss",
        "lat": -59.27494966184588,
        "lon": 29.37307231766834,
        "alt_km": 19104.649374115907,
        "timestamp": "2025-12-09T16:56:36.817492+00:00",
        "meta_object_name": "COSMOS 2485 (747)",
        "meta_object_id": "2013-019A",
        "meta_epoch": "2025-12-09T07:54:23.489856",
        "meta_mean_motion": 2.13102865,
        "meta_eccentricity": 0.0024552,
        "meta_inclination": 65.3117,
        "meta_ra_of_asc_node": 79.9821,
        "meta_arg_of_pericenter": 229.1035,
        "meta_mean_anomaly": 130.7002,
        "meta_ephemeris_type": 0,
        "meta_classification_type": "U",
        "meta_norad_cat_id": 39155,
        "meta_element_set_no": 999,
        "meta_rev_at_epoch": 9823,
        "meta_bstar": 0,
        "meta_mean_motion_dot": -1.3e-07,
        "meta_mean_motion_ddot": 0,
        "tle_line1": "1 39155U 13019A   25343.32943854 -.00000013  00000+0  00000+0 0  9995",
        "tle_line2": "2 39155  65.3117  79.9821 0024552 229.1035 130.7002  2.13102865 98237"
      },
      "geometry": {
        "type": "Point",
        "coordinates": [
          29.37307231766834,
          -59.27494966184588
        ]
      }
    },
    {
      "type": "Feature",
      "properties": {
        "norad_id": 39166,
        "name": "GPS BIIF-4  (PRN 27)",
        "group": "gnss",
        "lat": -10.581647374573679,
        "lon": -90.9298136455312,
        "alt_km": 20005.795066574705,
        "timestamp": "2025-12-09T16:56:36.817503+00:00",
        "meta_object_name": "GPS BIIF-4  (PRN 27)",
        "meta_object_id": "2013-023A",
        "meta_epoch": "2025-12-09T05:24:11.843712",
        "meta_mean_motion": 2.00565099,
        "meta_eccentricity": 0.0137683,
        "meta_inclination": 54.6551,
        "meta_ra_of_asc_node": 276.7112,
        "meta_arg_of_pericenter": 48.5762,
        "meta_mean_anomaly": 312.6137,
        "meta_ephemeris_type": 0,
        "meta_classification_type": "U",
        "meta_norad_cat_id": 39166,
        "meta_element_set_no": 999,
        "meta_rev_at_epoch": 9207,
        "meta_bstar": 0,
        "meta_mean_motion_dot": -4.9e-07,
        "meta_mean_motion_ddot": 0,
        "tle_line1": "1 39166U 13023A   25343.22513708 -.00000049  00000+0  00000+0 0  9991",
        "tle_line2": "2 39166  54.6551 276.7112 0137683  48.5762 312.6137  2.00565099 92076"
      },
      "geometry": {
        "type": "Point",
        "coordinates": [
          -90.9298136455312,
          -10.581647374573679
        ]
      }
    },
    {
      "type": "Feature",
      "properties": {
        "norad_id": 39199,
        "name": "IRNSS-1A",
        "group": "gnss",
        "lat": -20.973017204158865,
        "lon": 33.85875323867786,
        "alt_km": 35852.36557114698,
        "timestamp": "2025-12-09T16:56:36.817515+00:00",
        "meta_object_name": "IRNSS-1A",
        "meta_object_id": "2013-034A",
        "meta_epoch": "2025-12-02T19:49:26.431104",
        "meta_mean_motion": 1.00279053,
        "meta_eccentricity": 0.00216608,
        "meta_inclination": 35.2852,
        "meta_ra_of_asc_node": 66.6964,
        "meta_arg_of_pericenter": 185.4059,
        "meta_mean_anomaly": 172.3398,
        "meta_ephemeris_type": 0,
        "meta_classification_type": "U",
        "meta_norad_cat_id": 39199,
        "meta_element_set_no": 999,
        "meta_rev_at_epoch": 4539,
        "meta_bstar": 0,
        "meta_mean_motion_dot": 6.5e-07,
        "meta_mean_motion_ddot": 0,
        "tle_line1": "1 39199U 13034A   25336.82600036  .00000065  00000+0  00000+0 0  9995",
        "tle_line2": "2 39199  35.2852  66.6964 0021660 185.4059 172.3398  1.00279053 45393"
      },
      "geometry": {
        "type": "Point",
        "coordinates": [
          33.85875323867786,
          -20.973017204158865
        ]
      }
    },
    {
      "type": "Feature",
      "properties": {
        "norad_id": 39533,
        "name": "GPS BIIF-5  (PRN 30)",
        "group": "gnss",
        "lat": -6.8266228655844765,
        "lon": 151.97899744731933,
        "alt_km": 20301.896402189217,
        "timestamp": "2025-12-09T16:56:36.817530+00:00",
        "meta_object_name": "GPS BIIF-5  (PRN 30)",
        "meta_object_id": "2014-008A",
        "meta_epoch": "2025-12-08T17:17:53.714976",
        "meta_mean_motion": 2.00574163,
        "meta_eccentricity": 0.0079112,
        "meta_inclination": 53.6309,
        "meta_ra_of_asc_node": 157.0886,
        "meta_arg_of_pericenter": 226.4438,
        "meta_mean_anomaly": 132.9028,
        "meta_ephemeris_type": 0,
        "meta_classification_type": "U",
        "meta_norad_cat_id": 39533,
        "meta_element_set_no": 999,
        "meta_rev_at_epoch": 8586,
        "meta_bstar": 0,
        "meta_mean_motion_dot": 5.9e-07,
        "meta_mean_motion_ddot": 0,
        "tle_line1": "1 39533U 14008A   25342.72076059  .00000059  00000+0  00000+0 0  9990",
        "tle_line2": "2 39533  53.6309 157.0886 0079112 226.4438 132.9028  2.00574163 85865"
      },
      "geometry": {
        "type": "Point",
        "coordinates": [
          151.97899744731933,
          -6.8266228655844765
        ]
      }
    }
  ]
}